{
    "links": {
        "self": "http://www.neowsapp.com/rest/v1/neo/3117434?api_key=iIulBulltgU6a56xZRHN4H3l9WmuAYTsLGpBGhQ2"
    },
    "id": "3117434",
    "neo_reference_id": "3117434",
    "name": "(2002 EU11)",
    "designation": "2002 EU11",
    "nasa_jpl_url": "http://ssd.jpl.nasa.gov/sbdb.cgi?sstr=3117434",
    "absolute_magnitude_h": 21.9,
    "estimated_diameter": {
        "kilometers": {
            "estimated_diameter_min": 0.1108038821,
            "estimated_diameter_max": 0.2477650126
        },
        "meters": {
            "estimated_diameter_min": 110.8038821264,
            "estimated_diameter_max": 247.7650126055
        },
        "miles": {
            "estimated_diameter_min": 0.068850319,
            "estimated_diameter_max": 0.1539539936
        },
        "feet": {
            "estimated_diameter_min": 363.5298086356,
            "estimated_diameter_max": 812.8773639568
        }
    },
    "is_potentially_hazardous_asteroid": true,
    "close_approach_data": [
        {
            "close_approach_date": "2002-03-29",
            "close_approach_date_full": "2002-Mar-29 06:33",
            "epoch_date_close_approach": 1017383580000,
            "relative_velocity": {
                "kilometers_per_second": "19.7518918398",
                "kilometers_per_hour": "71106.8106232051",
                "miles_per_hour": "44183.0068564021"
            },
            "miss_distance": {
                "astronomical": "0.0679869768",
                "lunar": "26.4469339752",
                "kilometers": "10170706.917019416",
                "miles": "6319784.2259473008"
            },
            "orbiting_body": "Earth"
        }
    ],
    "orbital_data": {
        "orbit_id": "15",
        "orbit_determination_date": "2017-04-06 09:15:21",
        "first_observation_date": "2002-03-13",
        "last_observation_date": "2002-03-26",
        "data_arc_in_days": 13,
        "observations_used": 71,
        "orbit_uncertainty": "8",
        "minimum_orbit_intersection": ".0146307",
        "jupiter_tisserand_invariant": "3.156",
        "epoch_osculation": "2452351.5",
        "eccentricity": ".6882158750899368",
        "semi_major_axis": "2.394706776005062",
        "inclination": "2.942250945254173",
        "ascending_node_longitude": "346.3335056939503",
        "orbital_period": "1353.558222652339",
        "perihelion_distance": ".7466315565729371",
        "perihelion_argument": "274.4458592722654",
        "aphelion_distance": "4.042781995437188",
        "perihelion_time": "2452405.738475542526",
        "mean_anomaly": "345.5744282968132",
        "mean_motion": ".2659656555405271",
        "equinox": "J2000",
        "orbit_class": {
            "orbit_class_type": "APO",
            "orbit_class_description": "Near-Earth asteroid orbits which cross the Earth’s orbit similar to that of 1862 Apollo",
            "orbit_class_range": "a (semi-major axis) > 1.0 AU; q (perihelion) < 1.017 AU"
        }
    },
    "is_sentry_object": false
}